NORAD_CAT_ID,OBJECT_NAME,OBJECT_TYPE,EPOCH,MEAN_MOTION,ECCENTRICITY,INCLINATION,RA_OF_ASC_NODE,ARG_OF_PERICENTER,MEAN_ANOMALY,BSTAR,MEAN_MOTION_DOT,MEAN_MOTION_DDOT,TLE_LINE0,TLE_LINE1,TLE_LINE2,SEMIMAJOR_AXIS,PERIOD,APOGEE,PERIGEE,DECAYED
51463.0,STARLINK-3419,PAYLOAD,2023-01-13 19:39:39,15.0883775,0.0002292,53.2165,45.5854,40.8894,319.22700000000003,0.00073364,0.00011406,0.0,0 STARLINK-3419,1 51463U 22010H   23013.81920271  .00011406  00000-0  73364-3 0  9991,2 51463  53.2165  45.5854 0002292  40.8894 319.2270 15.08837750 52771,6917.887,95.438,541.3380000000001,538.1669999999999,0.0
51463.0,STARLINK-3419,PAYLOAD,2023-01-14 08:22:44,15.08854052,0.0002405,53.2155,43.2102,39.7105,320.4063,0.0010083,0.00015802,0.0,0 STARLINK-3419,1 51463U 22010H   23014.34912282  .00015802  00000-0  10083-2 0  9995,2 51463  53.2155  43.2102 0002405  39.7105 320.4063 15.08854052 53600,6917.837,95.437,541.366,538.039,0.0
51463.0,STARLINK-3419,PAYLOAD,2023-01-15 01:51:59,15.08851863,0.0002551,53.216,39.9387,42.5131,317.6059,0.0010314,0.0001617,0.0,0 STARLINK-3419,1 51463U 22010H   23015.07776675  .00016170  00000-0  10314-2 0  9996,2 51463  53.2160  39.9387 0002551  42.5131 317.6059 15.08851863 53718,6917.844,95.437,541.474,537.944,0.0
51463.0,STARLINK-3419,PAYLOAD,2023-01-15 08:13:31,15.08851675,0.0002008999999999,53.2158,38.7482,33.9907,326.1214,0.00094878,0.00014849,0.0,0 STARLINK-3419,1 51463U 22010H   23015.34272519  .00014849  00000-0  94878-3 0  9993,2 51463  53.2158  38.7482 0002009  33.9907 326.1214 15.08851675 53002,6917.845,95.437,541.099,538.32,0.0
51463.0,STARLINK-3419,PAYLOAD,2023-01-16 06:28:54,15.08875706,0.0002359,53.2161,34.5868,46.9892,313.1298,0.0018275,0.00028946,0.0,0 STARLINK-3419,1 51463U 22010H   23016.27008060  .00028946  00000-0  18275-2 0  9993,2 51463  53.2161  34.5868 0002359  46.9892 313.1298 15.08875706 53899,6917.771,95.435,541.268,538.004,0.0
51463.0,STARLINK-3419,PAYLOAD,2023-01-16 11:15:03,15.08887653,0.0002386,53.2161,33.6946,48.5669,311.5528,0.0017947,0.00028428,0.0,0 STARLINK-3419,1 51463U 22010H   23016.46879466  .00028428  00000-0  17947-2 0  9990,2 51463  53.2161  33.6946 0002386  48.5669 311.5528 15.08887653 53179,6917.735,95.435,541.25,537.9490000000001,0.0
51463.0,STARLINK-3419,PAYLOAD,2023-01-16 17:36:37,15.08845023,0.0002883999999999,53.2158,32.5019,55.4092,304.7172,0.00021586,3.149e-05,0.0,0 STARLINK-3419,1 51463U 22010H   23016.73376336  .00003149  00000-0  21586-3 0  9996,2 51463  53.2158  32.5019 0002884  55.4092 304.7172 15.08845023 53965,6917.865,95.437,541.725,537.735,0.0
51463.0,STARLINK-3419,PAYLOAD,2023-01-17 01:33:33,15.08811998,0.0001985,53.217,31.0205,80.1746,279.947,7.6301e-05,9.26e-06,0.0,0 STARLINK-3419,1 51463U 22010H   23017.06496924  .00000926  00000-0  76301-4 0  9995,2 51463  53.2170  31.0205 0001985  80.1746 279.9470 15.08811998 54017,6917.965999999999,95.439,541.2040000000001,538.4580000000001,0.0
51463.0,STARLINK-3419,PAYLOAD,2023-01-17 07:55:06,15.08816017,0.0001945,53.2168,29.8308,75.7273,284.3935,-0.00034256,-5.732e-05,0.0,0 STARLINK-3419,1 51463U 22010H   23017.32993242 -.00005732  00000-0 -34256-3 0  9993,2 51463  53.2168  29.8308 0001945  75.7273 284.3935 15.08816017 53308,6917.954000000001,95.439,541.164,538.4730000000001,0.0
51463.0,STARLINK-3419,PAYLOAD,2023-01-17 17:27:25,15.08825144,0.0002029999999999,53.2174,28.0468,82.7782,277.3441,0.00080237,0.000125,0.0,0 STARLINK-3419,1 51463U 22010H   23017.72737943  .00012500  00000-0  80237-3 0  9990,2 51463  53.2174  28.0468 0002030  82.7782 277.3441 15.08825144 53363,6917.926,95.438,541.195,538.386,0.0
51463.0,STARLINK-3419,PAYLOAD,2023-01-18 09:21:16,15.08879017,0.0001836,53.2151,25.0713,78.2379,281.8819,0.0023493,0.0003734,0.0,0 STARLINK-3419,1 51463U 22010H   23018.38977262  .00037340  00000-0  23493-2 0  9992,2 51463  53.2151  25.0713 0001836  78.2379 281.8819 15.08879017 54215,6917.761,95.435,540.896,538.356,0.0
51463.0,STARLINK-3419,PAYLOAD,2023-01-19 10:47:26,15.08854734,0.0001583,53.2144,20.3129,80.4791,279.638,0.0019236,0.00030471,0.0,0 STARLINK-3419,1 51463U 22010H   23019.44961345  .00030471  00000-0  19236-2 0  9993,2 51463  53.2144  20.3129 0001583  80.4791 279.6380 15.08854734 54372,6917.835,95.437,540.795,538.605,0.0
51463.0,STARLINK-3419,PAYLOAD,2023-01-19 13:58:12,15.08855159,0.0001593,53.2144,19.7172,80.9741,279.1431,0.0015356,0.00024246,0.0,0 STARLINK-3419,1 51463U 22010H   23019.58209314  .00024246  00000-0  15356-2 0  9991,2 51463  53.2144  19.7172 0001593  80.9741 279.1431 15.08855159 53646,6917.834,95.437,540.8009999999999,538.597,0.0
51463.0,STARLINK-3419,PAYLOAD,2023-01-20 09:02:49,15.08863936,0.0001604,53.2158,16.1479,83.2221,276.8954,0.0011163,0.00017534,0.0,0 STARLINK-3419,1 51463U 22010H   23020.37696660  .00017534  00000-0  11163-2 0  9998,2 51463  53.2158  16.1479 0001604  83.2221 276.8954 15.08863936 54517,6917.807,95.436,540.7819999999999,538.563,0.0
51463.0,STARLINK-3419,PAYLOAD,2023-01-20 16:59:45,15.08844971,0.0001746,53.2158,14.6614,83.48,276.6391,0.0002824,4.210000000000001e-05,0.0,0 STARLINK-3419,1 51463U 22010H   23020.70817097  .00004210  00000-0  28240-3 0  9996,2 51463  53.2158  14.6614 0001746  83.4800 276.6391 15.08844971 54569,6917.865,95.437,540.938,538.5219999999999,0.0
51463.0,STARLINK-3419,PAYLOAD,2023-01-22 05:33:37,15.08855008,0.000156,53.216,7.8204,91.2752,268.8419,0.00050473,7.757e-05,0.0,0 STARLINK-3419,1 51463U 22010H   23022.23168966  .00007757  00000-0  50473-3 0  9992,2 51463  53.2160   7.8204 0001560  91.2752 268.8419 15.08855008 54790,6917.835,95.437,540.779,538.62,0.0
51463.0,STARLINK-3419,PAYLOAD,2023-01-23 06:59:48,15.0883814,0.0001624,53.2157,3.0617,95.6222,264.4955,0.00026473,3.927e-05,0.0,0 STARLINK-3419,1 51463U 22010H   23023.29153610  .00003927  00000-0  26473-3 0  9997,2 51463  53.2157   3.0617 0001624  95.6222 264.4955 15.08838140 54956,6917.886,95.438,540.875,538.628,0.0
51463.0,STARLINK-3419,PAYLOAD,2023-01-24 14:47:31,15.08839038,0.0001469,53.2167,357.1162,90.044,270.072,0.00031586,4.742e-05,0.0,0 STARLINK-3419,1 51463U 22010H   23024.61634100  .00004742  00000-0  31586-3 0  9999,2 51463  53.2167 357.1162 0001469  90.0440 270.0720 15.08839038 55156,6917.883000000001,95.438,540.765,538.732,0.0
51463.0,STARLINK-3419,PAYLOAD,2023-01-25 08:16:46,15.08845014,0.0001314,53.216,353.8456,93.4385,266.6757,0.00028404,4.236e-05,0.0,0 STARLINK-3419,1 51463U 22010H   23025.34498048  .00004236  00000-0  28404-3 0  9992,2 51463  53.2160 353.8456 0001314  93.4385 266.6757 15.08845014 54513,6917.865,95.437,540.639,538.821,0.0
51463.0,STARLINK-3419,PAYLOAD,2023-01-25 14:38:18,15.08843618,0.0001220999999999,53.2158,352.6559,89.2697,270.8435,0.00022652,3.319e-05,0.0,0 STARLINK-3419,1 51463U 22010H   23025.60994077  .00003319  00000-0  22652-3 0  9994,2 51463  53.2158 352.6559 0001221  89.2697 270.8435 15.08843618 54559,6917.869000000001,95.437,540.5790000000001,538.89,0.0
51463.0,STARLINK-3419,PAYLOAD,2023-01-26 01:46:01,15.08836492,0.0001262999999999,53.2159,350.5746,85.5207,274.5929,5.7344e-05,6.25e-06,0.0,0 STARLINK-3419,1 51463U 22010H   23026.07362414  .00000625  00000-0  57344-4 0  9994,2 51463  53.2159 350.5746 0001263  85.5207 274.5929 15.08836492 55379,6917.891,95.438,540.63,538.882,0.0
51463.0,STARLINK-3419,PAYLOAD,2023-01-27 03:12:11,15.0884133,0.0001264,53.215,345.8191,84.9034,275.2103,6.6564e-05,7.72e-06,0.0,0 STARLINK-3419,1 51463U 22010H   23027.13346204  .00000772  00000-0  66564-4 0  9998,2 51463  53.2150 345.8191 0001264  84.9034 275.2103 15.08841330 55530,6917.876,95.437,540.616,538.867,0.0
51463.0,STARLINK-3419,PAYLOAD,2023-01-27 06:22:57,15.08852198,0.000117,53.2162,345.2223,91.0496,269.063,0.00026522,3.937e-05,0.0,0 STARLINK-3419,1 51463U 22010H   23027.26593991  .00003937  00000-0  26522-3 0  9994,2 51463  53.2162 345.2223 0001170  91.0496 269.0630 15.08852198 54809,6917.843000000001,95.437,540.5169999999999,538.899,0.0
51463.0,STARLINK-3419,PAYLOAD,2023-01-28 06:13:44,15.08842826,0.0001228,53.2155,340.7594,88.1827,271.9306,3.7473e-05,3.09e-06,0.0,0 STARLINK-3419,1 51463U 22010H   23028.25954211  .00000309  00000-0  37473-4 0  9998,2 51463  53.2155 340.7594 0001228  88.1827 271.9306 15.08842826 55700,6917.871999999999,95.437,540.586,538.887,0.0
51463.0,STARLINK-3419,PAYLOAD,2023-01-28 20:32:12,15.08839677,0.0001321,53.2153,338.0832,94.935,265.1793,7.2814e-05,8.71e-06,0.0,0 STARLINK-3419,1 51463U 22010H   23028.85570529  .00000871  00000-0  72814-4 0  9992,2 51463  53.2153 338.0832 0001321  94.9350 265.1793 15.08839677 55045,6917.881,95.438,540.66,538.833,0.0
51463.0,STARLINK-3419,PAYLOAD,2023-01-29 20:23:00,15.08839662,0.0001166,53.2153,333.6247,78.124,281.9882,0.00010536,1.389e-05,0.0,0 STARLINK-3419,1 51463U 22010H   23029.84930563  .00001389  00000-0  10536-3 0  9997,2 51463  53.2153 333.6247 0001166  78.1240 281.9882 15.08839662 55943,6917.881,95.438,540.553,538.94,0.0
51463.0,STARLINK-3419,PAYLOAD,2023-01-30 05:55:18,15.08847389,0.0001272,53.2153,331.8404,81.9388,278.1749,0.00019633,2.839e-05,0.0,0 STARLINK-3419,1 51463U 22010H   23030.24674160  .00002839  00000-0  19633-3 0  9999,2 51463  53.2153 331.8404 0001272  81.9388 278.1749 15.08847389 55250,6917.858,95.437,540.603,538.843,0.0
51463.0,STARLINK-3419,PAYLOAD,2023-01-30 15:27:37,15.08839367,0.0001311,53.2149,330.0565,80.2409,279.8731,4.0536e-05,3.57e-06,0.0,0 STARLINK-3419,1 51463U 22010H   23030.64418508  .00000357  00000-0  40536-4 0  9995,2 51463  53.2149 330.0565 0001311  80.2409 279.8731 15.08839367 55317,6917.882,95.438,540.654,538.84,0.0
51463.0,STARLINK-3419,PAYLOAD,2023-01-30 23:24:33,15.08841,0.0001314,53.215,328.5695,81.1079,279.0062,1.1964e-05,-9.7e-07,0.0,0 STARLINK-3419,1 51463U 22010H   23030.97538409 -.00000097  00000-0  11964-4 0  9999,2 51463  53.2150 328.5695 0001314  81.1079 279.0062 15.08841000 56116,6917.877,95.437,540.651,538.833,0.0
